      2.10          N: GNSS NAV DATA                        RINEX VERSION / TYPE
fic2rin                                 02/12/2024 00:17:59 PGM / RUN BY / DATE
                                                            END OF HEADER
11 24  2 11  4  0  0.0 -.571745447814D-03 -.129602995003D-10  .000000000000D+00
     .340000000000D+02  .121468750000D+03  .427803534020D-08 -.109544383068D+01
     .639073550701D-05  .124377710745D-02  .965781509876D-05  .515366928482D+04
     .144000000000D+05 -.167638063431D-07 -.233326980610D+01  .558793544769D-08
     .966205318787D+00  .197968750000D+03 -.247574360996D+01 -.800569061201D-08
     .355729103259D-09  .100000000000D+01  .230100000000D+04  .000000000000D+00
     .240000000000D+01  .000000000000D+00 -.838190317154D-08  .802000000000D+03
     .720000000000D+04  .400000000000D+01
28 24  2 11  4  0  0.0 -.127108767629D-03 -.126192389871D-10  .000000000000D+00
     .520000000000D+02  .211562500000D+02  .436482466961D-08  .165144602620D+01
     .109151005745D-05  .661564758047D-03  .131092965603D-04  .515359376907D+04
     .144000000000D+05  .447034835815D-07  .726924733824D+00  .521540641785D-07
     .961561923177D+00  .128000000000D+03  .173640268810D+01 -.792104422900D-08
     .613954145083D-09  .100000000000D+01  .230100000000D+04  .000000000000D+00
     .240000000000D+01  .000000000000D+00 -.931322574615D-08  .308000000000D+03
     .720000000000D+04  .400000000000D+01
23 24  2 11  4  0  0.0  .153678003699D-03  .795807864051D-11  .000000000000D+00
     .450000000000D+02  .132187500000D+02  .466376569313D-08  .284467013390D+01
     .724568963051D-06  .398061028682D-02  .607222318649D-06  .515370144272D+04
     .144000000000D+05 -.819563865662D-07 -.136245654845D+01 -.875443220139D-07
     .977330004712D+00  .378187500000D+03 -.296483944901D+01 -.849642533879D-08
     .671456540289D-10  .100000000000D+01  .230100000000D+04  .000000000000D+00
     .240000000000D+01  .000000000000D+00 -.838190317154D-08  .557000000000D+03
     .720000000000D+04  .400000000000D+01
14 24  2 11  4  0  0.0  .322608742863D-03  .100044417195D-10  .000000000000D+00
     .191000000000D+03  .112500000000D+02  .542379735150D-08  .244651157505D+01
     .653788447380D-06  .395660416689D-02  .362470746040D-05  .515367767143D+04
     .144000000000D+05 -.130385160446D-06  .183425253856D+01  .428408384323D-07
     .946070625742D+00  .299906250000D+03 -.296715166857D+01 -.861500170654D-08
     .132148361653D-09  .100000000000D+01  .230100000000D+04  .000000000000D+00
     .240000000000D+01  .000000000000D+00 -.791624188423D-08  .959000000000D+03
     .720000000000D+04  .400000000000D+01
10 24  2 11  4  0  0.0 -.455416738987D-06  .341060513165D-12 -.277555756156D-16
     .189000000000D+03  .940625000000D+01  .467483758289D-08  .169368397923D+01
     .437721610069D-06  .931251212023D-02  .996515154839D-06  .515368268204D+04
     .144000000000D+05 -.253319740295D-06 -.133396987322D+01  .745058059692D-08
     .982194254139D+00  .375875000000D+03 -.237762837884D+01 -.859785813530D-08
     .535736601294D-11  .100000000000D+01  .230100000000D+04  .000000000000D+00
     .240000000000D+02  .630000000000D+02  .232830643654D-08  .189000000000D+03
     .720000000000D+04  .400000000000D+01
6  24  2 11  3 59 44.0  .411707907915D-03 -.146656020661D-10  .000000000000D+00
     .100000000000D+01  .124406250000D+03  .376301388749D-08 -.225934051097D+01
     .658631324768D-05  .314131204505D-02  .106692314148D-04  .515356703949D+04
     .143840000000D+05 -.577419996262D-07 -.236870388806D+01  .223517417908D-07
     .989797372942D+00  .191125000000D+03 -.773874725503D+00 -.767281960373D-08
     .351800368183D-09  .100000000000D+01  .230100000000D+04  .000000000000D+00
     .240000000000D+01  .000000000000D+00  .372529029846D-08  .100000000000D+01
     .106500000000D+05  .400000000000D+01
32 24  2 11  3 59 44.0 -.610960181803D-03 -.216004991671D-11  .000000000000D+00
     .120000000000D+02 -.135250000000D+03  .443518474325D-08  .447816104675D+00
    -.696070492268D-05  .753636471927D-02  .984035432339D-05  .515364206123D+04
     .143840000000D+05 -.521540641785D-07 -.296239398394D+00  .117346644402D-06
     .961666725165D+00  .191656250000D+03 -.218222839617D+01 -.826177270742D-08
    -.535022285826D-09  .100000000000D+01  .230100000000D+04  .000000000000D+00
     .240000000000D+01  .000000000000D+00  .465661287308D-09  .120000000000D+02
     .106800000000D+05  .400000000000D+01
13 24  2 11  3 59 44.0  .624430831522D-03  .352429196937D-11  .000000000000D+00
     .500000000000D+02 -.114156250000D+03  .409195616068D-08 -.611509108106D+00
    -.601075589657D-05  .778948038351D-02  .105313956738D-04  .515366873169D+04
     .143840000000D+05 -.428408384323D-07 -.146219310095D+00  .149011611938D-06
     .971434566275D+00  .181406250000D+03  .941156161652D+00 -.802211986778D-08
    -.356800576462D-09  .100000000000D+01  .230100000000D+04  .000000000000D+00
     .240000000000D+01  .000000000000D+00 -.111758708954D-07  .500000000000D+02
     .119100000000D+05  .400000000000D+01
6  24  2 11  5 59 44.0  .411601737142D-03 -.146656020661D-10  .000000000000D+00
     .490000000000D+02  .116093750000D+03  .378337187834D-08 -.120957234743D+01
     .589154660702D-05  .314214394893D-02  .113118439913D-04  .515356401253D+04
     .215840000000D+05 -.242143869400D-07 -.236875971009D+01 -.614672899246D-07
     .989799773591D+00  .179406250000D+03 -.773400283615D+00 -.774532262378D-08
     .397516558160D-09  .100000000000D+01  .230100000000D+04  .000000000000D+00
     .240000000000D+01  .000000000000D+00  .372529029846D-08  .490000000000D+02
     .144000000000D+05  .400000000000D+01
13 24  2 11  5 59 44.0  .624455977231D-03  .352429196937D-11  .000000000000D+00
     .510000000000D+02 -.127218750000D+03  .420696095110D-08  .438695070851D+00
    -.649131834507D-05  .778751098551D-02  .102221965790D-04  .515366502380D+04
     .215840000000D+05 -.968575477600D-07 -.146277206541D+00  .707805156708D-07
     .971431953503D+00  .188375000000D+03  .941133976499D+00 -.804033491222D-08
    -.373586989969D-09  .100000000000D+01  .230100000000D+04  .000000000000D+00
     .240000000000D+01  .000000000000D+00 -.111758708954D-07  .510000000000D+02
     .144000000000D+05  .400000000000D+01
32 24  2 11  5 59 44.0 -.610975548625D-03 -.216004991671D-11  .000000000000D+00
     .130000000000D+02 -.131187500000D+03  .444268505567D-08  .149808877307D+01
    -.685080885887D-05  .753611547407D-02  .982731580734D-05  .515364094734D+04
     .215840000000D+05 -.212341547012D-06 -.296299206874D+00  .409781932831D-07
     .961663173200D+00  .193906250000D+03 -.218230083549D+01 -.818391232137D-08
    -.459662003910D-09  .100000000000D+01  .230100000000D+04  .000000000000D+00
     .240000000000D+01  .000000000000D+00  .465661287308D-09  .130000000000D+02
     .144000000000D+05  .400000000000D+01
2  24  2 11  6  0  0.0 -.487244222313D-03  .591171556152D-11  .000000000000D+00
     .890000000000D+02  .113687500000D+03  .425803450709D-08  .106635850451D+01
     .561960041523D-05  .162069399375D-01  .123623758554D-04  .515371689034D+04
     .216000000000D+05  .372529029846D-08 -.246469043732D+01 -.387430191040D-06
     .967708004831D+00  .145906250000D+03 -.124348983538D+01 -.806783605776D-08
     .276440086268D-09  .100000000000D+01  .230100000000D+04  .000000000000D+00
     .240000000000D+01  .000000000000D+00 -.176951289177D-07  .890000000000D+02
     .144000000000D+05  .400000000000D+01
1  24  2 11  6  0  0.0  .169095583260D-03  .147792889038D-11  .000000000000D+00
     .170000000000D+02  .138375000000D+03  .370372570361D-08 -.156510517024D+01
     .714696943760D-05  .127044514520D-01  .111646950245D-04  .515400678253D+04
     .216000000000D+05  .309199094772D-06 -.236036636975D+01  .260770320892D-07
     .990684741013D+00  .176625000000D+03  .998806702731D+00 -.761638868173D-08
     .425374861428D-09  .100000000000D+01  .230100000000D+04  .000000000000D+00
     .240000000000D+01  .630000000000D+02  .512227416039D-08  .170000000000D+02
     .144000000000D+05  .400000000000D+01
5  24  2 11  6  0  0.0 -.161367002875D-03 -.147792889038D-11  .000000000000D+00
     .280000000000D+02  .267500000000D+02  .490627579465D-08  .106758537198D+01
     .144727528095D-05  .566492776852D-02  .113807618618D-05  .515355629921D+04
     .216000000000D+05 -.109896063805D-06 -.138142290391D+01  .763684511185D-07
     .969487539345D+00  .364968750000D+03  .123355553907D+01 -.868607609565D-08
     .116076263614D-09  .100000000000D+01  .230100000000D+04  .000000000000D+00
     .240000000000D+01  .000000000000D+00 -.111758708954D-07  .280000000000D+02
     .144000000000D+05  .400000000000D+01
3  24  2 11  6  0  0.0  .185698270798D-03  .244426701101D-10  .000000000000D+00
     .620000000000D+02  .157187500000D+02  .466733727047D-08 -.247527006923D+01
     .888481736183D-06  .508610648103D-02  .756233930588D-06  .515377387810D+04
     .216000000000D+05  .596046447754D-07 -.133145197616D+01 -.502914190292D-07
     .982511021253D+00  .377531250000D+03  .107021041170D+01 -.846320966951D-08
     .139648674071D-09  .100000000000D+01  .230100000000D+04  .000000000000D+00
     .240000000000D+01  .000000000000D+00  .186264514923D-08  .620000000000D+02
     .144000000000D+05  .400000000000D+01
7  24  2 11  6  0  0.0 -.591725111008D-04 -.909494701773D-11  .000000000000D+00
     .140000000000D+02  .180937500000D+02  .441232664826D-08 -.209549814214D+01
     .748783349991D-06  .179299215088D-01  .125300139189D-04  .515367519760D+04
     .216000000000D+05  .229105353355D-06  .761179067443D+00 -.128522515297D-06
     .950416327764D+00  .127562500000D+03 -.215192956921D+01 -.766531929132D-08
     .706457998240D-09  .100000000000D+01  .230100000000D+04  .000000000000D+00
     .240000000000D+01  .000000000000D+00 -.111758708954D-07  .140000000000D+02
     .144000000000D+05  .400000000000D+01
